[
    {
        "Altitude(m)": 562519.3502148282,
        "Argument of Periapsis(deg)": 0.033114955553567506,
        "Eccentricity": 0.0,
        "Inclination(deg)": 53.0,
        "Latitude(deg)": -30.087761144768404,
        "Longitude(deg)": -74.72310451078094,
        "Mean Anomaly(deg)": -38.632835662112,
        "RAAN(deg)": 54.950716842640084,
        "Satellite Name": "Starlink Shell 1 258",
        "Satellite Number": 258,
        "Semi-Major Axis(m)": 6931778.249405717,
        "Time(s)": 950
    },
    {
        "Altitude(m)": 562344.1827740966,
        "Argument of Periapsis(deg)": 0.03346353403307874,
        "Eccentricity": 0.0,
        "Inclination(deg)": 53.0,
        "Latitude(deg)": -29.634781214166228,
        "Longitude(deg)": -74.2653613887932,
        "Mean Anomaly(deg)": -38.00600445855533,
        "RAAN(deg)": 54.95019807256261,
        "Satellite Name": "Starlink Shell 1 258",
        "Satellite Number": 258,
        "Semi-Major Axis(m)": 6931778.249405717,
        "Time(s)": 960
    },
    {
        "Altitude(m)": 562169.2323484031,
        "Argument of Periapsis(deg)": 0.03381211251258998,
        "Eccentricity": 0.0,
        "Inclination(deg)": 53.0,
        "Latitude(deg)": -29.179896029663986,
        "Longitude(deg)": -73.81205510527752,
        "Mean Anomaly(deg)": -37.37917325499863,
        "RAAN(deg)": 54.949679302485144,
        "Satellite Name": "Starlink Shell 1 258",
        "Satellite Number": 258,
        "Semi-Major Axis(m)": 6931778.249405717,
        "Time(s)": 970
    },
    {
        "Altitude(m)": 561994.5642206704,
        "Argument of Periapsis(deg)": 0.034160690992101214,
        "Eccentricity": 0.0,
        "Inclination(deg)": 53.0,
        "Latitude(deg)": -28.723155636254333,
        "Longitude(deg)": -73.36308320687401,
        "Mean Anomaly(deg)": -36.75234205144187,
        "RAAN(deg)": 54.94916053240767,
        "Satellite Name": "Starlink Shell 1 258",
        "Satellite Number": 258,
        "Semi-Major Axis(m)": 6931778.249405717,
        "Time(s)": 980
    },
    {
        "Altitude(m)": 561820.2434013076,
        "Argument of Periapsis(deg)": 0.034509269471612446,
        "Eccentricity": 0.0,
        "Inclination(deg)": 53.0,
        "Latitude(deg)": -28.264608985300452,
        "Longitude(deg)": -72.9183440267732,
        "Mean Anomaly(deg)": -36.1255108478852,
        "RAAN(deg)": 54.94864176233019,
        "Satellite Name": "Starlink Shell 1 258",
        "Satellite Number": 258,
        "Semi-Major Axis(m)": 6931778.249405717,
        "Time(s)": 990
    }
]